ONEWEB-0018             
1 45434U 20020L   24256.72279223 -.00000318  00000+0 -93382-3 0  9998
2 45434  87.8980 149.0131 0001762  77.3009 282.8316 13.11413665218421
ONEWEB-0083             
1 45435U 20020M   24256.71262777  .00000101  00000+0  24990-3 0  9991
2 45435  87.8977 148.9969 0001837  72.8090 287.3239 13.11416691218468
ONEWEB-0095             
1 45436U 20020N   24257.46725856  .00000535  00000+0  14747-2 0  9996
2 45436  87.8974 148.8802 0002400  58.4511 301.6851 13.11418441218573
ONEWEB-0092             
1 45437U 20020P   24257.12884937 -.00000197  00000+0 -59293-3 0  9998
2 45437  87.8980 148.9302 0001891  64.9081 295.2243 13.11415921218634
ONEWEB-0085             
1 45438U 20020Q   24257.46881976  .00000533  00000+0  14690-2 0  9999
2 45438  87.8978 148.8715 0001702  75.5932 284.5384 13.11415246218573
ONEWEB-0096             
1 45439U 20020R   24256.71432188  .00000056  00000+0  12166-3 0  9991
2 45439  87.8977 148.9902 0001575  77.2512 282.8792 13.11415976218454
ONEWEB-0037             
1 45440U 20020S   24257.22976051  .00000654  00000+0  18093-2 0  9990
2 45440  87.8971 148.8672 0001774  69.9566 290.1753 13.11416851218565
ONEWEB-0042             
1 45441U 20020T   24257.46698704  .00000542  00000+0  14947-2 0  9993
2 45441  87.8977 148.8546 0001700  73.9799 286.1516 13.11415249218566
